[{"OBJECT_NAME":"STARLINK-37022","OBJECT_ID":"2026-044A","EPOCH":"2026-04-06T06:00:02.000160","MEAN_MOTION":15.39345449,"ECCENTRICITY":0.00018945,"INCLINATION":97.2854,"RA_OF_ASC_NODE":57.4977,"ARG_OF_PERICENTER":104.7789,"MEAN_ANOMALY":197.5311,"EPHEMERIS_TYPE":0,"CLASSIFICATION_TYPE":"U","NORAD_CAT_ID":68101,"ELEMENT_SET_NO":999,"REV_AT_EPOCH":583,"BSTAR":-0.050653105,"MEAN_MOTION_DOT":-0.01783545,"MEAN_MOTION_DDOT":0},{"OBJECT_NAME":"STARLINK-37046","OBJECT_ID":"2026-044B","EPOCH":"2026-04-06T06:00:02.000160","MEAN_MOTION":15.39118802,"ECCENTRICITY":0.00020367,"INCLINATION":97.2851,"RA_OF_ASC_NODE":57.5045,"ARG_OF_PERICENTER":106.3389,"MEAN_ANOMALY":212.119,"EPHEMERIS_TYPE":0,"CLASSIFICATION_TYPE":"U","NORAD_CAT_ID":68102,"ELEMENT_SET_NO":999,"REV_AT_EPOCH":583,"BSTAR":-0.051657006,"MEAN_MOTION_DOT":-0.0180334,"MEAN_MOTION_DDOT":0},{"OBJECT_NAME":"STARLINK-37018","OBJECT_ID":"2026-044C","EPOCH":"2026-04-06T06:00:02.000160","MEAN_MOTION":15.3921393,"ECCENTRICITY":0.00019026,"INCLINATION":97.2847,"RA_OF_ASC_NODE":57.5112,"ARG_OF_PERICENTER":105.7979,"MEAN_ANOMALY":227.1752,"EPHEMERIS_TYPE":0,"CLASSIFICATION_TYPE":"U","NORAD_CAT_ID":68103,"ELEMENT_SET_NO":999,"REV_AT_EPOCH":578,"BSTAR":-0.051106906,"MEAN_MOTION_DOT":-0.01790969,"MEAN_MOTION_DDOT":0},{"OBJECT_NAME":"STARLINK-37041","OBJECT_ID":"2026-044D","EPOCH":"2026-04-06T06:00:02.000160","MEAN_MOTION":15.39595773,"ECCENTRICITY":0.00019248,"INCLINATION":97.2852,"RA_OF_ASC_NODE":57.5226,"ARG_OF_PERICENTER":109.163,"MEAN_ANOMALY":251.8382,"EPHEMERIS_TYPE":0,"CLASSIFICATION_TYPE":"U","NORAD_CAT_ID":68104,"ELEMENT_SET_NO":999,"REV_AT_EPOCH":578,"BSTAR":-0.05043324,"MEAN_MOTION_DOT":-0.01789859,"MEAN_MOTION_DDOT":0},{"OBJECT_NAME":"STARLINK-37021","OBJECT_ID":"2026-044E","EPOCH":"2026-04-06T06:00:02.000160","MEAN_MOTION":15.43352547,"ECCENTRICITY":0.00016495,"INCLINATION":97.2848,"RA_OF_ASC_NODE":57.5136,"ARG_OF_PERICENTER":104.3631,"MEAN_ANOMALY":246.3903,"EPHEMERIS_TYPE":0,"CLASSIFICATION_TYPE":"U","NORAD_CAT_ID":68105,"ELEMENT_SET_NO":999,"REV_AT_EPOCH":578,"BSTAR":-0.049873128,"MEAN_MOTION_DOT":-0.01983625,"MEAN_MOTION_DDOT":0},{"OBJECT_NAME":"STARLINK-37024","OBJECT_ID":"2026-044F","EPOCH":"2026-04-06T06:00:02.000160","MEAN_MOTION":15.405318,"ECCENTRICITY":0.0001748,"INCLINATION":97.2854,"RA_OF_ASC_NODE":57.5327,"ARG_OF_PERICENTER":110.6933,"MEAN_ANOMALY":274.9848,"EPHEMERIS_TYPE":0,"CLASSIFICATION_TYPE":"U","NORAD_CAT_ID":68106,"ELEMENT_SET_NO":999,"REV_AT_EPOCH":578,"BSTAR":-0.049109206,"MEAN_MOTION_DOT":-0.01796853,"MEAN_MOTION_DDOT":0},{"OBJECT_NAME":"STARLINK-37005","OBJECT_ID":"2026-044G","EPOCH":"2026-04-06T06:00:02.000160","MEAN_MOTION":15.39627646,"ECCENTRICITY":0.00018452,"INCLINATION":97.2854,"RA_OF_ASC_NODE":57.5159,"ARG_OF_PERICENTER":105.3766,"MEAN_ANOMALY":240.5047,"EPHEMERIS_TYPE":0,"CLASSIFICATION_TYPE":"U","NORAD_CAT_ID":68107,"ELEMENT_SET_NO":999,"REV_AT_EPOCH":578,"BSTAR":-0.050975389,"MEAN_MOTION_DOT":-0.01808921,"MEAN_MOTION_DDOT":0},{"OBJECT_NAME":"STARLINK-37017","OBJECT_ID":"2026-044H","EPOCH":"2026-04-06T06:00:02.000160","MEAN_MOTION":15.40413015,"ECCENTRICITY":0.0001872,"INCLINATION":97.2854,"RA_OF_ASC_NODE":57.5398,"ARG_OF_PERICENTER":106.1045,"MEAN_ANOMALY":295.2941,"EPHEMERIS_TYPE":0,"CLASSIFICATION_TYPE":"U","NORAD_CAT_ID":68108,"ELEMENT_SET_NO":999,"REV_AT_EPOCH":578,"BSTAR":-0.049284301,"MEAN_MOTION_DOT":-0.0179629,"MEAN_MOTION_DDOT":0},{"OBJECT_NAME":"STARLINK-36833","OBJECT_ID":"2026-044J","EPOCH":"2026-04-06T06:00:02.000160","MEAN_MOTION":15.41309868,"ECCENTRICITY":0.00015665,"INCLINATION":97.2851,"RA_OF_ASC_NODE":57.5464,"ARG_OF_PERICENTER":81.9135,"MEAN_ANOMALY":343.478,"EPHEMERIS_TYPE":0,"CLASSIFICATION_TYPE":"U","NORAD_CAT_ID":68109,"ELEMENT_SET_NO":999,"REV_AT_EPOCH":583,"BSTAR":-0.048987817,"MEAN_MOTION_DOT":-0.01835177,"MEAN_MOTION_DDOT":0},{"OBJECT_NAME":"STARLINK-36830","OBJECT_ID":"2026-044K","EPOCH":"2026-04-06T06:00:02.000160","MEAN_MOTION":15.4071205,"ECCENTRICITY":0.0001764,"INCLINATION":97.2856,"RA_OF_ASC_NODE":57.5451,"ARG_OF_PERICENTER":94.7975,"MEAN_ANOMALY":319.7123,"EPHEMERIS_TYPE":0,"CLASSIFICATION_TYPE":"U","NORAD_CAT_ID":68110,"ELEMENT_SET_NO":999,"REV_AT_EPOCH":583,"BSTAR":-0.048074296,"MEAN_MOTION_DOT":-0.01772133,"MEAN_MOTION_DDOT":0},{"OBJECT_NAME":"STARLINK-36791","OBJECT_ID":"2026-044L","EPOCH":"2026-04-06T06:00:02.000160","MEAN_MOTION":15.41250152,"ECCENTRICITY":0.0001389,"INCLINATION":97.2855,"RA_OF_ASC_NODE":57.554,"ARG_OF_PERICENTER":83.1208,"MEAN_ANOMALY":358.1057,"EPHEMERIS_TYPE":0,"CLASSIFICATION_TYPE":"U","NORAD_CAT_ID":68111,"ELEMENT_SET_NO":999,"REV_AT_EPOCH":578,"BSTAR":-0.049387464,"MEAN_MOTION_DOT":-0.01845273,"MEAN_MOTION_DDOT":0},{"OBJECT_NAME":"STARLINK-36893","OBJECT_ID":"2026-044M","EPOCH":"2026-04-06T06:00:02.000160","MEAN_MOTION":15.41502246,"ECCENTRICITY":0.00015592,"INCLINATION":97.2855,"RA_OF_ASC_NODE":57.5593,"ARG_OF_PERICENTER":69.5638,"MEAN_ANOMALY":24.9454,"EPHEMERIS_TYPE":0,"CLASSIFICATION_TYPE":"U","NORAD_CAT_ID":68112,"ELEMENT_SET_NO":999,"REV_AT_EPOCH":583,"BSTAR":-0.048601423,"MEAN_MOTION_DOT":-0.01832699,"MEAN_MOTION_DDOT":0},{"OBJECT_NAME":"STARLINK-36937","OBJECT_ID":"2026-044N","EPOCH":"2026-04-06T06:00:02.000160","MEAN_MOTION":15.42629198,"ECCENTRICITY":0.00018222,"INCLINATION":97.2856,"RA_OF_ASC_NODE":57.5681,"ARG_OF_PERICENTER":75.8305,"MEAN_ANOMALY":38.6981,"EPHEMERIS_TYPE":0,"CLASSIFICATION_TYPE":"U","NORAD_CAT_ID":68113,"ELEMENT_SET_NO":999,"REV_AT_EPOCH":578,"BSTAR":-0.046369401,"MEAN_MOTION_DOT":-0.01817633,"MEAN_MOTION_DDOT":0},{"OBJECT_NAME":"STARLINK-36229","OBJECT_ID":"2026-044P","EPOCH":"2026-04-06T06:00:02.000160","MEAN_MOTION":15.42012456,"ECCENTRICITY":0.00015727,"INCLINATION":97.2852,"RA_OF_ASC_NODE":57.5627,"ARG_OF_PERICENTER":84.1778,"MEAN_ANOMALY":20.4948,"EPHEMERIS_TYPE":0,"CLASSIFICATION_TYPE":"U","NORAD_CAT_ID":68114,"ELEMENT_SET_NO":999,"REV_AT_EPOCH":583,"BSTAR":-0.048004242,"MEAN_MOTION_DOT":-0.01840515,"MEAN_MOTION_DDOT":0},{"OBJECT_NAME":"STARLINK-36392","OBJECT_ID":"2026-044Q","EPOCH":"2026-04-06T06:00:02.000160","MEAN_MOTION":15.44310864,"ECCENTRICITY":0.00014773,"INCLINATION":97.2857,"RA_OF_ASC_NODE":57.5517,"ARG_OF_PERICENTER":104.8793,"MEAN_ANOMALY":323.2887,"EPHEMERIS_TYPE":0,"CLASSIFICATION_TYPE":"U","NORAD_CAT_ID":68115,"ELEMENT_SET_NO":999,"REV_AT_EPOCH":583,"BSTAR":-0.044361973,"MEAN_MOTION_DOT":-0.01838415,"MEAN_MOTION_DDOT":0},{"OBJECT_NAME":"STARLINK-36805","OBJECT_ID":"2026-044R","EPOCH":"2026-04-06T06:00:02.000160","MEAN_MOTION":15.46626879,"ECCENTRICITY":0.00015968,"INCLINATION":97.2856,"RA_OF_ASC_NODE":57.5646,"ARG_OF_PERICENTER":86.3214,"MEAN_ANOMALY":21.2746,"EPHEMERIS_TYPE":0,"CLASSIFICATION_TYPE":"U","NORAD_CAT_ID":68116,"ELEMENT_SET_NO":999,"REV_AT_EPOCH":583,"BSTAR":-0.040531878,"MEAN_MOTION_DOT":-0.01790273,"MEAN_MOTION_DDOT":0}]
