STARLINK-37022          
1 68101U 26044A   26096.25002315 -.01783545  00000+0 -50653-1 0  9997
2 68101  97.2854  57.4977 0001894 104.7789 197.5311 15.39345449  5830
STARLINK-37046          
1 68102U 26044B   26096.25002315 -.01803340  00000+0 -51657-1 0  9999
2 68102  97.2851  57.5045 0002036 106.3389 212.1190 15.39118802  5838
STARLINK-37018          
1 68103U 26044C   26096.25002315 -.01790969  00000+0 -51107-1 0  9992
2 68103  97.2847  57.5112 0001902 105.7979 227.1752 15.39213930  5780
STARLINK-37041          
1 68104U 26044D   26096.25002315 -.01789859  00000+0 -50433-1 0  9990
2 68104  97.2852  57.5226 0001924 109.1630 251.8382 15.39595773  5780
STARLINK-37021          
1 68105U 26044E   26096.25002315 -.01983625  00000+0 -49873-1 0  9994
2 68105  97.2848  57.5136 0001649 104.3631 246.3903 15.43352547  5781
STARLINK-37024          
1 68106U 26044F   26096.25002315 -.01796853  00000+0 -49109-1 0  9992
2 68106  97.2854  57.5327 0001748 110.6933 274.9848 15.40531800  5789
STARLINK-37005          
1 68107U 26044G   26096.25002315 -.01808921  00000+0 -50975-1 0  9996
2 68107  97.2854  57.5159 0001845 105.3766 240.5047 15.39627646  5788
STARLINK-37017          
1 68108U 26044H   26096.25002315 -.01796290  00000+0 -49284-1 0  9993
2 68108  97.2854  57.5398 0001872 106.1045 295.2941 15.40413015  5788
STARLINK-36833          
1 68109U 26044J   26096.25002315 -.01835177  00000+0 -48988-1 0  9992
2 68109  97.2851  57.5464 0001566  81.9135 343.4780 15.41309868  5834
STARLINK-36830          
1 68110U 26044K   26096.25002315 -.01772133  00000+0 -48074-1 0  9992
2 68110  97.2856  57.5451 0001764  94.7975 319.7123 15.40712050  5838
STARLINK-36791          
1 68111U 26044L   26096.25002315 -.01845273  00000+0 -49387-1 0  9997
2 68111  97.2855  57.5540 0001389  83.1208 358.1057 15.41250152  5789
STARLINK-36893          
1 68112U 26044M   26096.25002315 -.01832699  00000+0 -48601-1 0  9994
2 68112  97.2855  57.5593 0001559  69.5638  24.9454 15.41502246  5831
STARLINK-36937          
1 68113U 26044N   26096.25002315 -.01817633  00000+0 -46369-1 0  9995
2 68113  97.2856  57.5681 0001822  75.8305  38.6981 15.42629198  5783
STARLINK-36229          
1 68114U 26044P   26096.25002315 -.01840515  00000+0 -48004-1 0  9999
2 68114  97.2852  57.5627 0001572  84.1778  20.4948 15.42012456  5830
STARLINK-36392          
1 68115U 26044Q   26096.25002315 -.01838415  00000+0 -44362-1 0  9999
2 68115  97.2857  57.5517 0001477 104.8793 323.2887 15.44310864  5837
STARLINK-36805          
1 68116U 26044R   26096.25002315 -.01790273  00000+0 -40532-1 0  9994
2 68116  97.2856  57.5646 0001596  86.3214  21.2746 15.46626879  5831
